#dP2019  5 25  0  0  0.00000000      96 __u+U ITR00 FIT  IAC
## 2054 518400.00000000   900.00000000 58628 0.0000000000000
+   92   C01C02C03C05C06C07C08C10C11C12C13C14C16E01E02E03E04
+        E05E07E08E09E11E12E13E14E15E18E19E21E24E25E26E27E30
+        E31E33E36G01G02G03G04G05G06G07G08G09G10G11G12G13G14
+        G15G16G17G18G19G20G21G22G23G24G25G26G27G28G29G30G31
+        G32R01R02R03R04R05R07R08R09R10R11R13R14R15R16R17R18
+        R19R20R21R22R23R24R26  0  0  0  0  0  0  0  0  0  0
++        13 12 13 12  9  8  9  8  8  8  9  9  8  5  5  6  5
++         6  6  6  5  5  5  6  5  6  6  5  5  5  5  6  5  6
++         5  5  5  4  3  4  4  3  4  4  4  3  4  4  3  4  4
++         4  3  3  4  4  4  3  4  4  3  3  3  4  4  3  4  4
++         4  5  5  5  6  6  6  5  5  5  5  5  5  6  6  5  5
++         5  5  5  5  5  6  8  0  0  0  0  0  0  0  0  0  0
%c M  cc GPS ccc cccc cccc cccc cccc ccccc ccccc ccccc ccccc
%c cc cc ccc ccc cccc cccc cccc cccc ccccc ccccc ccccc ccccc
%f  0.0000000  0.000000000  0.00000000000  0.000000000000000
%f  0.0000000  0.000000000  0.00000000000  0.000000000000000
%i    0    0    0    0      0      0      0      0         0
%i    0    0    0    0      0      0      0      0         0
/*                                                          
/*   RSA / INFORMATION & ANALYSIS CENTER (IAC) OF MCC       
/*   ULTRA-RAPID DETERMINATION                              
/* PCV:IGS14_2045 OL/AL:FES2004  NONE     YN ORB:CoN CLK:CoN
*  2019 05 25 22 30  0.00000000
PC01 -32282.761644  27142.648221     90.828561    630.520182
PC02   4445.827926  41907.264197   -890.562917    137.150316
PC03 -14730.400776  39495.502601   -579.705273    397.910795
PC05  21943.435697  35992.645585   -605.673534   -171.045299
PC06 -24644.378116  30314.446609  15711.432548    896.348919
PC07 -11079.385410  35593.549474  20269.639300    -36.558358
PC08 -12101.058405  18372.474555 -35904.565704    160.665765
PC10    450.665301  41803.213267   7102.321633   -784.898647
PC11  27167.230387  -6010.947381   1760.731967    311.940771
PC12  14627.588832  11249.662820 -20849.751200    701.766257
PC13      0.000000      0.000000      0.000000 999999.999999
PC14  16366.026961   1253.159649  22642.440089    596.410368
PC16 -21597.926320  30934.901869  18674.179450   -826.081544
PE01  -1678.601913  25735.388272  14528.101470   -612.393944
PE02   1646.863473 -25760.583341 -14495.606076     61.885364
PE03  12871.751366 -24759.795456  -9842.887827   -170.123328
PE04   4733.119751  18657.742584  22499.464578   -289.348718
PE05  23068.468562 -16395.147376   8680.298040   -480.788550
PE07 -19721.235629  -1492.790491 -22011.384415   -194.651405
PE08  -4870.465003 -18451.986878 -22612.843276   6350.301379
PE09  19639.676330   1256.901245  22119.525675   6428.596348
PE11  28510.517086   7547.107442  -2677.698167   5689.078582
PE12  15236.408087  16274.224471 -19482.349787   6378.497415
PE13 -28491.107688  -7488.247261   2837.073114    387.578585
PE14  -5931.085505  22399.808153 -21758.023580   -580.603723
PE15 -15637.081541 -16066.020674  19328.088899    909.167900
PE18  13124.127945 -16889.973490  12372.702924   -677.814796
PE19 -14323.885702  24587.846128   8157.618296     -6.189490
PE21 -13948.486085   9187.336068  24432.270015   -535.780409
PE24  17941.173966  12417.719644 -20010.027310   6062.436711
PE25  13983.129051  -9109.437273 -24445.609375   1793.275536
PE26 -24741.289379   5417.124753 -15315.355659   4528.005198
PE27 -17947.270807 -12698.595989  19817.695012    462.525695
PE30 -11394.654946 -27051.130549   3826.409601   4842.684355
PE31  11402.165073  27085.335577  -3578.191605   -465.060739
PE33  -6387.894864  15258.630242 -24540.454888   -470.101716
PE36  24695.337569  -5506.894592  15374.517225    707.750367
PG01  22574.584954  14330.228894   -297.650662    -24.980677
PG02  -6845.702945 -18471.759685  18493.242024   -221.882235
PG03  12753.603499  13635.606119  18887.098602    187.329871
PG04  24240.901634 -10707.073645   1807.566008    163.279104
PG05  -2658.321339 -26055.258880  -3806.800425      0.802150
PG06   7303.542248 -13009.788432  22015.670654    195.830762
PG07  23246.805657   4564.602358 -12220.167196    -31.455924
PG08  10923.612158  10867.709758 -21624.620254   -144.931718
PG09  24290.497125  -6775.287284   8317.439805    404.446287
PG10 -11457.834383  17862.666706 -15782.177560     35.853062
PG11  22379.583918  10319.385282 -10102.766282   -598.961081
PG12 -10704.756348 -15880.348866  18261.943073    239.166414
PG13   -972.394630 -15576.226598 -21594.988386    -62.044546
PG14 -13915.783897  17370.809131  14674.520829    -78.934399
PG15 -13424.576674  -9930.198189 -20975.212372   -310.920847
PG16    333.046069  25888.038139  -4951.302140    -42.898411
PG17  20443.221021 -15259.511940   7634.322733     60.760980
PG18  17825.254184  17562.354238  -9590.026793     56.393749
PG19  15851.925890 -16332.584664  13448.826969   -314.591089
PG20 -14554.850453   8674.958764 -20525.864980    524.968704
PG21 -20973.085554   1219.565171 -15363.991395   -185.734257
PG22  11227.241584  19935.581371  13792.184996   -706.822176
PG23  19796.433994   3693.932207  17850.133416   -184.648243
PG24 -21763.820621 -15098.144890  -3814.943045    -66.569441
PG25 -14833.035822  -2043.796716  21734.609755   -759.786528
PG26  -4537.968384  25308.086186   6254.774016    210.606219
PG27  -1472.636035  16633.050622 -20686.304716   -140.986649
PG28  12485.527942 -17060.608221 -15533.120878    767.788871
PG29 -23516.940132   1908.944244  12170.385755    192.688480
PG30  17485.134720  -5181.875723 -19347.919195   -111.459067
PG31  -6541.572349  13841.895383  21674.535943     35.649954
PG32 -18605.597498  16944.431530   8361.463082    -71.692420
PR01   4580.250161  13161.915485  21376.947280     44.335934
PR02  14702.554646  -6809.161046  19764.299106    370.341446
PR03  14606.310534 -20166.196777   5685.850377     -4.295257
PR04   5646.741195 -21690.421352 -12170.142217    307.641502
PR05  -5762.119651 -11039.064034 -22248.417975     28.806869
PR07 -14412.364782  20399.142025  -5045.887150    -20.655000
PR08  -6094.030741  21890.098435  11642.637017     17.581042
PR09 -13949.287852  -3631.808678  21038.484929     71.623980
PR10  -5562.918488  11097.061645  22274.575170     50.651190
PR11   6934.436326  22131.094118  10687.365084    -67.299374
PR13  14461.775559   5512.804756 -20298.492435    -24.088703
PR14   5644.458591 -11300.124446 -22149.799400     39.304188
PR15  -6421.941758 -21849.211714 -11473.658723    102.167772
PR16 -15256.456796 -19633.200872   5931.517099      9.189464
PR17  18635.099683  -7263.932697  15818.217371    230.580226
PR18   1819.631687 -10500.844471  23188.346130     -5.570723
PR19 -15883.371338  -8452.268834  18077.178378    -32.610709
PR20 -25447.340657   -980.366458    865.609069   -379.228813
PR21 -18176.241081   7408.584366 -16304.779261    -50.144886
PR22   1372.844491  10463.422872 -23224.950664    -20.905131
PR23  20192.047497   6469.835020 -14196.334324    230.258564
PR24  25500.624754   -300.632537    907.855587   -180.839816
PR26 -25203.086708  -1703.062381   3632.483626    -10.407194
EOF
